ORBCOMM-X [-]           
1 21576U 91050C   23289.68589012  .00000700  00000+0  22566-3 0  9999
2 21576  98.4228 355.5062 0003003 210.0656 150.0362 14.42214241694234
ORBCOMM FM01 [-]        
1 23545U 95017A   23289.71718142  .00005440  00000+0  78369-3 0  9994
2 23545  69.9668 136.4968 0005289 193.8227 166.2776 14.76839961522163
ORBCOMM FM02 [-]        
1 23546U 95017B   23289.68793882  .00006916  00000+0  10035-2 0  9999
2 23546  69.9693 155.6160 0006694 177.7405 182.3773 14.76391981521811
ORBCOMM FM08 [-]        
1 25112U 97084A   23289.72155834  .00002799  00000+0  89903-3 0  9996
2 25112  45.0161  42.5474 0005902  56.8825 303.2591 14.41400683353315
ORBCOMM FM10 [-]        
1 25113U 97084B   23289.71822077  .00003052  00000+0  97749-3 0  9996
2 25113  45.0170  44.2830 0003568  17.6917 342.4056 14.41342238528466
ORBCOMM FM11 [+]        
1 25114U 97084C   23289.37392130  .00003052  00000+0  97974-3 0  9991
2 25114  45.0153  45.8359 0004327  17.1756 342.9239 14.41227203353380
ORBCOMM FM12 [-]        
1 25115U 97084D   23289.33012686  .00002769  00000+0  89355-3 0  9991
2 25115  45.0162  45.6867 0003311  16.9629 343.1331 14.41214650353176
ORBCOMM FM09 [-]        
1 25116U 97084E   23289.40630696  .00002845  00000+0  91706-3 0  9995
2 25116  45.0166  45.9559 0004715 358.1338   1.9494 14.41195341353397
